NORAD_CAT_ID,OBJECT_NAME,OBJECT_TYPE,EPOCH,MEAN_MOTION,ECCENTRICITY,INCLINATION,RA_OF_ASC_NODE,ARG_OF_PERICENTER,MEAN_ANOMALY,BSTAR,MEAN_MOTION_DOT,MEAN_MOTION_DDOT,TLE_LINE0,TLE_LINE1,TLE_LINE2,SEMIMAJOR_AXIS,PERIOD,APOGEE,PERIGEE,DECAYED
51740.0,STARLINK-3500,PAYLOAD,2023-05-20 22:56:35,15.08845857,0.000115,53.2169,234.8372,82.765,277.3472,6.6353e-05,7.68e-06,0.0,0 STARLINK-3500,1 51740U 22016AC  23140.95597114  .00000768  00000-0  66353-4 0  9997,2 51740  53.2169 234.8372 0001150  82.7650 277.3472 15.08845857 70076,6917.862,95.437,540.523,538.932,0.0
51740.0,STARLINK-3500,PAYLOAD,2023-05-21 08:28:55,15.08835816,0.0001089,53.2155,233.0547,97.2927,262.8188,-2.0086e-05,-6.07e-06,0.0,0 STARLINK-3500,1 51740U 22016AC  23141.35341950 -.00000607  00000-0 -20086-4 0  9994,2 51740  53.2155 233.0547 0001089  97.2927 262.8188 15.08835816 70139,6917.893,95.438,540.512,539.005,0.0
51740.0,STARLINK-3500,PAYLOAD,2023-05-21 11:39:41,15.08839125,9.12e-05,53.2162,232.4602,94.6061,265.5035,9.3067e-06,-1.4e-06,0.0,0 STARLINK-3500,1 51740U 22016AC  23141.48589633 -.00000140  00000-0  93067-5 0  9991,2 51740  53.2162 232.4602 0000912  94.6061 265.5035 15.08839125 69097,6917.883,95.438,540.379,539.117,0.0
51740.0,STARLINK-3500,PAYLOAD,2023-05-21 13:15:04,15.08841298,9.51e-05,53.216,232.1625,97.2984,262.8116,2.4215e-05,9.8e-07,0.0,0 STARLINK-3500,1 51740U 22016AC  23141.55213441  .00000098  00000-0  24215-4 0  9999,2 51740  53.2160 232.1625 0000951  97.2984 262.8116 15.08841298 70167,6917.876,95.437,540.399,539.084,0.0
51740.0,STARLINK-3500,PAYLOAD,2023-05-22 08:19:43,15.08831169,9.63e-05,53.2156,228.5957,89.4668,270.6434,-0.00011708,-2.15e-05,0.0,0 STARLINK-3500,1 51740U 22016AC  23142.34702796 -.00002150  00000-0 -11708-3 0  9998,2 51740  53.2156 228.5957 0000963  89.4668 270.6434 15.08831169 70283,6917.907,95.438,540.439,539.106,0.0
51740.0,STARLINK-3500,PAYLOAD,2023-05-22 14:41:15,15.08833772,0.0001227,53.2165,227.404,81.4327,278.6804,-8.7931e-05,-1.687e-05,0.0,0 STARLINK-3500,1 51740U 22016AC  23142.61198649 -.00001687  00000-0 -87931-4 0  9990,2 51740  53.2165 227.4040 0001227  81.4327 278.6804 15.08833772 69269,6917.899,95.438,540.613,538.916,0.0
51740.0,STARLINK-3500,PAYLOAD,2023-05-23 11:21:16,15.08834298,9.14e-05,53.2158,223.5397,95.5434,264.5662,2.1449e-05,5.4e-07,0.0,0 STARLINK-3500,1 51740U 22016AC  23143.47310563  .00000054  00000-0  21449-4 0  9993,2 51740  53.2158 223.5397 0000914  95.5434 264.5662 15.08834298 70453,6917.898,95.438,540.395,539.131,0.0
51740.0,STARLINK-3500,PAYLOAD,2023-05-23 22:28:57,15.08841006,8.66e-05,53.2161,221.4578,103.6252,256.4836,4.4095e-05,4.14e-06,0.0,0 STARLINK-3500,1 51740U 22016AC  23143.93678149  .00000414  00000-0  44095-4 0  9993,2 51740  53.2161 221.4578 0000866 103.6252 256.4836 15.08841006 69467,6917.877,95.437,540.341,539.143,0.0
51740.0,STARLINK-3500,PAYLOAD,2023-05-24 14:22:49,15.08841507,9.56e-05,53.216,218.484,82.7787,277.3314,0.00012649,1.726e-05,0.0,0 STARLINK-3500,1 51740U 22016AC  23144.59918144  .00001726  00000-0  12649-3 0  9994,2 51740  53.2160 218.4840 0000956  82.7787 277.3314 15.08841507 69564,6917.876,95.437,540.402,539.079,0.0
51740.0,STARLINK-3500,PAYLOAD,2023-05-26 04:32:04,15.08846144,0.0001185,53.2154,211.3455,82.4986,277.6141,-4.244e-05,-9.63e-06,0.0,0 STARLINK-3500,1 51740U 22016AC  23146.18894397 -.00000963  00000-0 -42440-4 0  9991,2 51740  53.2154 211.3455 0001185  82.4986 277.6141 15.08846144 70862,6917.862,95.437,540.546,538.907,0.0
51740.0,STARLINK-3500,PAYLOAD,2023-05-26 10:53:37,15.08848239,9.27e-05,53.2158,210.1567,75.3982,284.7113,-4.7576e-06,-3.63e-06,0.0,0 STARLINK-3500,1 51740U 22016AC  23146.45390079 -.00000363  00000-0 -47576-5 0  9999,2 51740  53.2158 210.1567 0000927  75.3982 284.7113 15.08848239 69848,6917.855,95.437,540.361,539.079,0.0
51740.0,STARLINK-3500,PAYLOAD,2023-05-27 04:22:52,15.08836323,0.0001103,53.2159,206.8875,63.6208,296.4898,3.727e-05,3.05e-06,0.0,0 STARLINK-3500,1 51740U 22016AC  23147.18254664  .00000305  00000-0  37270-4 0  9992,2 51740  53.2159 206.8875 0001103  63.6208 296.4898 15.08836323 71014,6917.892,95.438,540.52,538.994,0.0
51740.0,STARLINK-3500,PAYLOAD,2023-05-27 20:16:43,15.08836467,9.8e-05,53.2165,203.9145,83.6284,276.482,-4.2078e-06,-3.55e-06,0.0,0 STARLINK-3500,1 51740U 22016AC  23147.84494821 -.00000355  00000-0 -42078-5 0  9996,2 51740  53.2165 203.9145 0000980  83.6284 276.4820 15.08836467 70052,6917.891,95.438,540.434,539.078,0.0
51740.0,STARLINK-3500,PAYLOAD,2023-05-28 04:13:39,15.08838552,9.12e-05,53.2156,202.4259,76.733,283.3764,2.6869e-05,1.4e-06,0.0,0 STARLINK-3500,1 51740U 22016AC  23148.17614621  .00000140  00000-0  26869-4 0  9994,2 51740  53.2156 202.4259 0000912  76.7330 283.3764 15.08838552 70109,6917.885,95.438,540.381,539.119,0.0
51740.0,STARLINK-3500,PAYLOAD,2023-05-28 08:59:48,15.08839393,9.12e-05,53.2157,201.5339,76.5368,283.5725,3.2189e-05,2.25e-06,0.0,0 STARLINK-3500,1 51740U 22016AC  23148.37486560  .00000225  00000-0  32189-4 0  9991,2 51740  53.2157 201.5339 0000912  76.5368 283.5725 15.08839393 71191,6917.882,95.438,540.378,539.116,0.0
51740.0,STARLINK-3500,PAYLOAD,2023-05-28 20:07:30,15.08839567,9.03e-05,53.2158,199.4522,74.0391,286.0701,4.6403e-05,4.51e-06,0.0,0 STARLINK-3500,1 51740U 22016AC  23148.83854515  .00000451  00000-0  46403-4 0  9996,2 51740  53.2158 199.4522 0000903  74.0391 286.0701 15.08839567 70206,6917.882,95.438,540.371,539.122,0.0
51740.0,STARLINK-3500,PAYLOAD,2023-05-29 10:25:58,15.08836361,9.62e-05,53.2161,196.7772,78.632,281.4781,5.0435e-05,5.15e-06,0.0,0 STARLINK-3500,1 51740U 22016AC  23149.43470824  .00000515  00000-0  50435-4 0  9991,2 51740  53.2161 196.7772 0000962  78.6320 281.4781 15.08836361 71357,6917.892,95.438,540.422,539.091,0.0
51740.0,STARLINK-3500,PAYLOAD,2023-05-29 12:01:21,15.08837156,9.63e-05,53.2161,196.4799,78.2123,281.8977,5.6464e-05,6.11e-06,0.0,0 STARLINK-3500,1 51740U 22016AC  23149.50094760  .00000611  00000-0  56464-4 0  9995,2 51740  53.2161 196.4799 0000963  78.2123 281.8977 15.08837156 70309,6917.889,95.438,540.42,539.088,0.0
51740.0,STARLINK-3500,PAYLOAD,2023-05-29 19:58:17,15.0883395,9.72e-05,53.2158,194.992,74.4126,285.6973,2.48e-05,1.07e-06,0.0,0 STARLINK-3500,1 51740U 22016AC  23149.83215135  .00000107  00000-0  24800-4 0  9991,2 51740  53.2158 194.9920 0000972  74.4126 285.6973 15.08833950 70356,6917.899,95.438,540.436,539.091,0.0
51740.0,STARLINK-3500,PAYLOAD,2023-05-30 10:16:46,15.08835238,0.0001001,53.2156,192.3154,78.4704,281.64,8.1317e-06,-1.58e-06,0.0,0 STARLINK-3500,1 51740U 22016AC  23150.42831262 -.00000158  00000-0  81317-5 0  9997,2 51740  53.2156 192.3154 0001001  78.4704 281.6400 15.08835238 70447,6917.895,95.438,540.452,539.067,0.0
51740.0,STARLINK-3500,PAYLOAD,2023-05-30 19:49:04,15.08838619,0.0001003,53.2157,190.5311,78.9798,281.1307,3.211e-05,2.23e-06,0.0,0 STARLINK-3500,1 51740U 22016AC  23150.82575018  .00000223  00000-0  32110-4 0  9993,2 51740  53.2157 190.5311 0001003  78.9798 281.1307 15.08838619 70507,6917.885,95.438,540.443,539.056,0.0
51740.0,STARLINK-3500,PAYLOAD,2023-05-30 22:59:51,15.08838248,9.92e-05,53.2156,189.9362,78.68,281.4304,4.9987e-05,5.08e-06,0.0,0 STARLINK-3500,1 51740U 22016AC  23150.95822985  .00000508  00000-0  49987-4 0  9991,2 51740  53.2156 189.9362 0000992  78.6800 281.4304 15.08838248 71588,6917.886,95.438,540.437,539.064,0.0
51740.0,STARLINK-3500,PAYLOAD,2023-05-31 11:42:55,15.08843108,0.0001006,53.2156,187.5571,78.0345,282.0759,7.423e-05,8.94e-06,0.0,0 STARLINK-3500,1 51740U 22016AC  23151.48814634  .00000894  00000-0  74230-4 0  9999,2 51740  53.2156 187.5571 0001006  78.0345 282.0759 15.08843108 70603,6917.871,95.437,540.432,539.04,0.0
51740.0,STARLINK-3500,PAYLOAD,2023-05-31 19:39:51,15.08839044,0.0001017,53.2156,186.0701,77.323,282.7876,4.4554e-05,4.21e-06,0.0,0 STARLINK-3500,1 51740U 22016AC  23151.81934963  .00000421  00000-0  44554-4 0  9996,2 51740  53.2156 186.0701 0001017  77.3230 282.7876 15.08839044 70655,6917.883,95.438,540.452,539.045,0.0
51740.0,STARLINK-3500,PAYLOAD,2023-06-01 02:01:24,15.08836287,0.0001028,53.2154,184.8808,78.164,281.9467,4.8027e-05,4.77e-06,0.0,0 STARLINK-3500,1 51740U 22016AC  23152.08431168  .00000477  00000-0  48027-4 0  9995,2 51740  53.2154 184.8808 0001028  78.1640 281.9467 15.08836287 71758,6917.892,95.438,540.468,539.046,0.0
51740.0,STARLINK-3500,PAYLOAD,2023-06-01 08:22:57,15.08837374,0.0001041,53.2153,183.6911,78.5876,281.5233,5.1518e-05,5.32e-06,0.0,0 STARLINK-3500,1 51740U 22016AC  23152.34927140  .00000532  00000-0  51518-4 0  9995,2 51740  53.2153 183.6911 0001041  78.5876 281.5233 15.08837374 70731,6917.888,95.438,540.474,539.033,0.0
51740.0,STARLINK-3500,PAYLOAD,2023-06-02 11:24:30,15.08843015,0.0001128,53.2158,178.636,78.1362,281.9757,2.5433e-05,1.17e-06,0.0,0 STARLINK-3500,1 51740U 22016AC  23153.47534858  .00000117  00000-0  25433-4 0  9996,2 51740  53.2158 178.6360 0001128  78.1362 281.9757 15.08843015 71960,6917.871,95.437,540.517,538.956,0.0
51740.0,STARLINK-3500,PAYLOAD,2023-06-03 11:15:17,15.0883746,0.0001121,53.216,174.175,87.9772,272.1348,1.2683e-05,-8.6e-07,0.0,0 STARLINK-3500,1 51740U 22016AC  23154.46895226 -.00000086  00000-0  12683-4 0  9994,2 51740  53.2160 174.1750 0001121  87.9772 272.1348 15.08837460 72116,6917.888,95.438,540.529,538.978,0.0
51740.0,STARLINK-3500,PAYLOAD,2023-06-04 11:06:04,15.08835974,0.0001111,53.2158,169.7147,86.8455,273.2664,-6.9531e-07,-2.99e-06,0.0,0 STARLINK-3500,1 51740U 22016AC  23155.46255503 -.00000299  00000-0 -69531-6 0  9996,2 51740  53.2158 169.7147 0001111  86.8455 273.2664 15.08835974 71208,6917.893,95.438,540.526,538.989,0.0
51740.0,STARLINK-3500,PAYLOAD,2023-06-05 04:35:19,15.08838843,0.0001073,53.2156,166.4442,79.487,280.6243,5.0614e-05,5.18e-06,0.0,0 STARLINK-3500,1 51740U 22016AC  23156.19119233  .00000518  00000-0  50614-4 0  9998,2 51740  53.2156 166.4442 0001073  79.4870 280.6243 15.08838843 72376,6917.884,95.438,540.491,539.007,0.0
